     2.100          NAVIGATION                              RINEX VERSION / TYPE
fic2rin                                 05/26/2017 00:12:25 PGM / RUN BY / DATE
                                                            END OF HEADER
 8 17  5 25  6  0  0.0 -.608642585576D-04 -.125055521494D-11  .000000000000D+00
     .250000000000D+02 -.121250000000D+03  .391194866265D-08  .187302108627D+01
    -.630132853985D-05  .257868040353D-02  .125244259834D-04  .515364692688D+04
     .367200000000D+06  .353902578354D-07  .282823407665D+01  .596046447754D-07
     .967052324948D+00  .139687500000D+03 -.670556234170D+00 -.774960851659D-08
    -.892894335490D-11  .100000000000D+01  .195000000000D+04  .000000000000D+00
     .240000000000D+01  .000000000000D+00  .512227416039D-08  .250000000000D+02
     .360006000000D+06  .400000000000D+01
 9 17  5 25  6  0  0.0  .370448920876D-03  .795807864051D-11  .000000000000D+00
     .390000000000D+02  .281562500000D+02  .442482716896D-08  .135607909898D+01
     .126101076603D-05  .746988807805D-03  .135786831379D-04  .515363412476D+04
     .367200000000D+06 -.931322574615D-08 -.313599115782D+00 -.447034835815D-07
     .953870805462D+00  .110031250000D+03  .195500074938D+01 -.784032658107D-08
    -.656455915452D-09  .100000000000D+01  .195000000000D+04  .000000000000D+00
     .240000000000D+01  .000000000000D+00  .139698386192D-08  .390000000000D+02
     .360006000000D+06  .400000000000D+01
10 17  5 25  6  0  0.0 -.446783378720D-04  .103455022327D-10  .000000000000D+00
     .490000000000D+02 -.279062500000D+02  .518164440772D-08 -.299488487954D+01
    -.143796205521D-05  .253373873420D-02  .508315861225D-05  .515366338539D+04
     .367200000000D+06 -.102445483208D-06 -.135365395970D+01 -.558793544769D-07
     .959512767010D+00  .282843750000D+03 -.276628244085D+01 -.831213194795D-08
    -.356800576462D-09  .100000000000D+01  .195000000000D+04  .000000000000D+00
     .240000000000D+01  .000000000000D+00  .186264514923D-08  .490000000000D+02
     .360006000000D+06  .400000000000D+01
11 17  5 25  6  0  0.0 -.690511893481D-03 -.272848410532D-11  .000000000000D+00
     .220000000000D+02  .110625000000D+02  .574809657415D-08 -.140567313954D+01
     .886619091034D-06  .167606674368D-01  .125709921122D-04  .515371374321D+04
     .367200000000D+06 -.160187482834D-06 -.279469500757D+01  .433996319771D-06
     .901136005600D+00  .107937500000D+03  .164293257444D+01 -.862643075404D-08
     .731459039634D-09  .100000000000D+01  .195000000000D+04  .000000000000D+00
     .240000000000D+01  .000000000000D+00 -.121071934700D-07  .220000000000D+02
     .360006000000D+06  .400000000000D+01
12 17  5 25  6  0  0.0  .382881145924D-03 -.795807864051D-12  .000000000000D+00
     .200000000000D+02 -.751875000000D+02  .406266922648D-08 -.201089725168D+01
    -.386312603951D-05  .667033740319D-02  .875443220139D-06  .515378209686D+04
     .367200000000D+06  .745058059692D-07  .184921189850D+01 -.121071934700D-06
     .988949799169D+00  .376937500000D+03  .879173194532D+00 -.812605276843D-08
    -.190007914592D-09  .100000000000D+01  .195000000000D+04  .000000000000D+00
     .240000000000D+01  .000000000000D+00 -.125728547573D-07  .200000000000D+02
     .360006000000D+06  .400000000000D+01
14 17  5 25  6  0  0.0 -.719549134374D-04 -.136424205266D-11  .000000000000D+00
     .700000000000D+01  .460625000000D+02  .426624913497D-08  .101647757402D+01
     .246614217758D-05  .911405356601D-02  .131949782372D-04  .515366099358D+04
     .367200000000D+06 -.135973095894D-06 -.226901903215D+00  .409781932831D-07
     .962512759948D+00  .131375000000D+03 -.196192458265D+01 -.790997233924D-08
    -.551451541599D-09  .100000000000D+01  .195000000000D+04  .000000000000D+00
     .240000000000D+01  .000000000000D+00 -.931322574615D-08  .700000000000D+01
     .360006000000D+06  .400000000000D+01
15 17  5 25  6  0  0.0 -.350524205714D-03 -.682121026330D-12  .000000000000D+00
     .780000000000D+02 -.315625000000D+01  .520700260684D-08  .446453509129D+00
     .115483999252D-06  .913790729828D-02  .119470059872D-04  .515380348778D+04
     .367200000000D+06 -.223517417908D-07 -.375090975450D+00  .160187482834D-06
     .929437457841D+00  .129781250000D+03  .583100624390D+00 -.834213319762D-08
    -.691100215669D-09  .100000000000D+01  .195000000000D+04  .000000000000D+00
     .240000000000D+01  .000000000000D+00 -.107102096081D-07  .780000000000D+02
     .360006000000D+06  .400000000000D+01
16 17  5 25  6  0  0.0  .338437967002D-04  .568434188608D-12  .000000000000D+00
     .101000000000D+03 -.858750000000D+02  .411874299075D-08  .227012307594D+01
    -.451877713203D-05  .935676589143D-02  .192038714886D-05  .515369807243D+04
     .367200000000D+06 -.204890966415D-06  .186808064076D+01 -.447034835815D-07
     .989429386140D+00  .360468750000D+03  .451139589763D+00 -.821998525252D-08
    -.309298597814D-09  .100000000000D+01  .195000000000D+04  .000000000000D+00
     .240000000000D+01  .000000000000D+00 -.107102096081D-07  .101000000000D+03
     .360006000000D+06  .400000000000D+01
17 17  5 25  6  0  0.0 -.178013462573D-03  .181898940355D-11  .000000000000D+00
     .970000000000D+02 -.139312500000D+03  .362193658248D-08  .131958784659D+01
    -.710226595402D-05  .116136659635D-01  .122170895338D-04  .515364574623D+04
     .367200000000D+06 -.232830643654D-06  .288573526550D+01 -.124797224998D-06
     .980314654566D+00  .153812500000D+03 -.184846844939D+01 -.776639493009D-08
     .521450291926D-10  .100000000000D+01  .195000000000D+04  .000000000000D+00
     .340000000000D+01  .000000000000D+00 -.111758708954D-07  .970000000000D+02
     .360006000000D+06  .400000000000D+01
18 17  5 25  6  0  0.0  .617080368102D-03  .170530256582D-11  .000000000000D+00
     .170000000000D+02 -.295000000000D+02  .592667544125D-08  .276842619954D+01
    -.160187482834D-05  .180991354864D-01  .390410423279D-05  .515375357437D+04
     .367200000000D+06  .162050127983D-06 -.139570533508D+01 -.305473804474D-06
     .925093284569D+00  .281375000000D+03 -.180215261807D+01 -.852821237713D-08
    -.363943731146D-09  .100000000000D+01  .195000000000D+04  .000000000000D+00
     .240000000000D+01  .000000000000D+00 -.111758708954D-07  .170000000000D+02
     .360006000000D+06  .400000000000D+01
19 17  5 25  6  0  0.0 -.502364244312D-03  .147792889038D-11  .000000000000D+00
     .620000000000D+02 -.122531250000D+03  .367479592714D-08 -.187754516190D+01
    -.637024641037D-05  .102983184624D-01  .121258199215D-04  .515367706680D+04
     .367200000000D+06  .154599547386D-06  .293356009389D+01 -.614672899246D-07
     .977599987706D+00  .145218750000D+03  .976483631994D+00 -.749531220984D-08
     .213580325049D-09  .100000000000D+01  .195000000000D+04  .000000000000D+00
     .240000000000D+01  .000000000000D+00 -.153668224812D-07  .620000000000D+02
     .360006000000D+06  .400000000000D+01
20 17  5 25  6  0  0.0  .473549589515D-03  .147792889038D-11  .000000000000D+00
     .730000000000D+02 -.206875000000D+02  .610739725475D-08  .430197487361D+00
    -.964850187302D-06  .432251056191D-02  .408105552197D-05  .515366908264D+04
     .367200000000D+06 -.111758708954D-07 -.144708303851D+01  .633299350739D-07
     .926439137017D+00  .284625000000D+03  .159910439874D+01 -.897037365207D-08
    -.151077721565D-09  .100000000000D+01  .195000000000D+04  .000000000000D+00
     .240000000000D+01  .000000000000D+00 -.838190317154D-08  .730000000000D+02
     .360006000000D+06  .400000000000D+01
21 17  5 25  6  0  0.0 -.505004543811D-03  .227373675443D-11  .000000000000D+00
     .129000000000D+03  .532500000000D+02  .502663795108D-08 -.259082420696D+01
     .252947211266D-05  .239646208938D-01  .894255936146D-05  .515367632675D+04
     .367200000000D+06  .299885869026D-06 -.243651491892D+01  .158324837685D-06
     .939762290380D+00  .186968750000D+03 -.166986616463D+01 -.788639992878D-08
     .920038323289D-09  .100000000000D+01  .195000000000D+04  .000000000000D+00
     .340000000000D+01  .000000000000D+00 -.977888703346D-08  .129000000000D+03
     .360006000000D+06  .400000000000D+01
22 17  5 25  6  0  0.0 -.858213752508D-06 -.121644916362D-10  .000000000000D+00
     .360000000000D+02 -.248437500000D+02  .623490256586D-08  .808372771034D+00
    -.127404928207D-05  .754770101048D-02  .482797622681D-05  .515380569077D+04
     .367200000000D+06 -.119209289551D-06 -.139584400801D+01  .260770320892D-07
     .923132589595D+00  .271375000000D+03 -.173096702433D+01 -.899608900893D-08
    -.288583449230D-09  .100000000000D+01  .195000000000D+04  .000000000000D+00
     .240000000000D+01  .000000000000D+00 -.176951289177D-07  .360000000000D+02
     .360006000000D+06  .400000000000D+01
23 17  5 25  6  0  0.0 -.212388113141D-03 -.682121026330D-12  .000000000000D+00
     .720000000000D+02  .367187500000D+02  .471126767178D-08  .818621308006D-02
     .187754631042D-05  .117257988313D-01  .127088278532D-04  .515375185966D+04
     .367200000000D+06  .223517417908D-07 -.311747547182D+00  .968575477600D-07
     .944739531211D+00  .122718750000D+03 -.246319094044D+01 -.819284126472D-08
    -.666099174276D-09  .100000000000D+01  .195000000000D+04  .000000000000D+00
     .240000000000D+01  .000000000000D+00 -.204890966415D-07  .720000000000D+02
     .360006000000D+06  .400000000000D+01
24 17  5 25  6  0  0.0 -.352947972715D-04 -.568434188608D-12  .000000000000D+00
     .180000000000D+02  .143875000000D+03  .479948563213D-08 -.601939069613D+00
     .740773975849D-05  .563999288715D-02  .644102692604D-05  .515369721031D+04
     .367200000000D+06  .819563865662D-07  .711054751267D+00  .596046447754D-07
     .945642137036D+00  .247218750000D+03  .489182303355D+00 -.842963684250D-08
     .200722646618D-09  .100000000000D+01  .195000000000D+04  .000000000000D+00
     .240000000000D+01  .000000000000D+00  .279396772385D-08  .180000000000D+02
     .360006000000D+06  .400000000000D+01
